{
  "type": "FeatureCollection",
  "features": [
    {
      "type": "Feature",
      "properties": {
        "norad_id": 34079,
        "name": "IRIDIUM 33 DEB",
        "group": "iridium-33-debris",
        "lat": 84.3774383286819,
        "lon": 49.370515322880955,
        "alt_km": 609.7894742916324,
        "timestamp": "2025-12-11T07:02:24.115288+00:00",
        "meta_object_name": "IRIDIUM 33 DEB",
        "meta_object_id": "1997-051CN",
        "meta_epoch": "2025-12-10T20:07:33.470976",
        "meta_mean_motion": 14.83443209,
        "meta_eccentricity": 0.00058616,
        "meta_inclination": 86.3777,
        "meta_ra_of_asc_node": 9.5265,
        "meta_arg_of_pericenter": 14.1255,
        "meta_mean_anomaly": 164.5468,
        "meta_ephemeris_type": 0,
        "meta_classification_type": "U",
        "meta_norad_cat_id": 34079,
        "meta_element_set_no": 999,
        "meta_rev_at_epoch": 88949,
        "meta_bstar": 0.0025719301,
        "meta_mean_motion_dot": 0.00021191,
        "meta_mean_motion_ddot": 0,
        "tle_line1": "1 34079U 97051CN  25344.83858184  .00021191  00000+0  25719-2 0  9997",
        "tle_line2": "2 34079  86.3777   9.5265 0005861  14.1255 164.5468 14.83443209889498"
      },
      "geometry": {
        "type": "Point",
        "coordinates": [
          49.370515322880955,
          84.3774383286819
        ]
      }
    },
    {
      "type": "Feature",
      "properties": {
        "norad_id": 34088,
        "name": "IRIDIUM 33 DEB",
        "group": "iridium-33-debris",
        "lat": 43.65942603487901,
        "lon": -152.07069833275486,
        "alt_km": 587.7654767364729,
        "timestamp": "2025-12-11T07:02:24.115299+00:00",
        "meta_object_name": "IRIDIUM 33 DEB",
        "meta_object_id": "1997-051CX",
        "meta_epoch": "2025-12-10T21:33:56.530080",
        "meta_mean_motion": 14.91233135,
        "meta_eccentricity": 0.00055122,
        "meta_inclination": 86.3845,
        "meta_ra_of_asc_node": 31.5698,
        "meta_arg_of_pericenter": 183.1078,
        "meta_mean_anomaly": 355.2108,
        "meta_ephemeris_type": 0,
        "meta_classification_type": "U",
        "meta_norad_cat_id": 34088,
        "meta_element_set_no": 999,
        "meta_rev_at_epoch": 88714,
        "meta_bstar": 0.0038162368,
        "meta_mean_motion_dot": 0.00038131,
        "meta_mean_motion_ddot": 0,
        "tle_line1": "1 34088U 97051CX  25344.89857095  .00038131  00000+0  38162-2 0  9991",
        "tle_line2": "2 34088  86.3845  31.5698 0005512 183.1078 355.2108 14.91233135887146"
      },
      "geometry": {
        "type": "Point",
        "coordinates": [
          -152.07069833275486,
          43.65942603487901
        ]
      }
    },
    {
      "type": "Feature",
      "properties": {
        "norad_id": 34091,
        "name": "IRIDIUM 33 DEB",
        "group": "iridium-33-debris",
        "lat": 11.733489466475497,
        "lon": 68.25722069566508,
        "alt_km": 618.8860596749428,
        "timestamp": "2025-12-11T07:02:24.115309+00:00",
        "meta_object_name": "IRIDIUM 33 DEB",
        "meta_object_id": "1997-051DA",
        "meta_epoch": "2025-12-10T05:03:05.693184",
        "meta_mean_motion": 14.81495206,
        "meta_eccentricity": 0.003336,
        "meta_inclination": 86.3408,
        "meta_ra_of_asc_node": 67.9914,
        "meta_arg_of_pericenter": 302.3952,
        "meta_mean_anomaly": 57.4043,
        "meta_ephemeris_type": 0,
        "meta_classification_type": "U",
        "meta_norad_cat_id": 34091,
        "meta_element_set_no": 999,
        "meta_rev_at_epoch": 87829,
        "meta_bstar": 0.0076077,
        "meta_mean_motion_dot": 0.00060664,
        "meta_mean_motion_ddot": 0,
        "tle_line1": "1 34091U 97051DA  25344.21048256  .00060664  00000+0  76077-2 0  9995",
        "tle_line2": "2 34091  86.3408  67.9914 0033360 302.3952  57.4043 14.81495206878290"
      },
      "geometry": {
        "type": "Point",
        "coordinates": [
          68.25722069566508,
          11.733489466475497
        ]
      }
    },
    {
      "type": "Feature",
      "properties": {
        "norad_id": 34097,
        "name": "IRIDIUM 33 DEB",
        "group": "iridium-33-debris",
        "lat": 35.06830295007731,
        "lon": 179.37223813396565,
        "alt_km": 817.3093565785421,
        "timestamp": "2025-12-11T07:02:24.115319+00:00",
        "meta_object_name": "IRIDIUM 33 DEB",
        "meta_object_id": "1997-051DG",
        "meta_epoch": "2025-12-10T18:39:16.111584",
        "meta_mean_motion": 14.34750948,
        "meta_eccentricity": 0.00828082,
        "meta_inclination": 86.2005,
        "meta_ra_of_asc_node": 2.2737,
        "meta_arg_of_pericenter": 8.5902,
        "meta_mean_anomaly": 351.6688,
        "meta_ephemeris_type": 0,
        "meta_classification_type": "U",
        "meta_norad_cat_id": 34097,
        "meta_element_set_no": 999,
        "meta_rev_at_epoch": 87091,
        "meta_bstar": 0.0021420417,
        "meta_mean_motion_dot": 6.328e-05,
        "meta_mean_motion_ddot": 0,
        "tle_line1": "1 34097U 97051DG  25344.77726981  .00006328  00000+0  21420-2 0  9999",
        "tle_line2": "2 34097  86.2005   2.2737 0082808   8.5902 351.6688 14.34750948870914"
      },
      "geometry": {
        "type": "Point",
        "coordinates": [
          179.37223813396565,
          35.06830295007731
        ]
      }
    },
    {
      "type": "Feature",
      "properties": {
        "norad_id": 34145,
        "name": "IRIDIUM 33 DEB",
        "group": "iridium-33-debris",
        "lat": 13.541286021435619,
        "lon": -25.914983050228432,
        "alt_km": 748.1735858558413,
        "timestamp": "2025-12-11T07:02:24.115329+00:00",
        "meta_object_name": "IRIDIUM 33 DEB",
        "meta_object_id": "1997-051DY",
        "meta_epoch": "2025-12-10T04:20:07.855008",
        "meta_mean_motion": 14.42258512,
        "meta_eccentricity": 0.0055658,
        "meta_inclination": 86.2123,
        "meta_ra_of_asc_node": 333.6661,
        "meta_arg_of_pericenter": 101.9259,
        "meta_mean_anomaly": 258.8189,
        "meta_ephemeris_type": 0,
        "meta_classification_type": "U",
        "meta_norad_cat_id": 34145,
        "meta_element_set_no": 999,
        "meta_rev_at_epoch": 87601,
        "meta_bstar": 0.0015884,
        "meta_mean_motion_dot": 5.356e-05,
        "meta_mean_motion_ddot": 0,
        "tle_line1": "1 34145U 97051DY  25344.18064647  .00005356  00000+0  15884-2 0  9999",
        "tle_line2": "2 34145  86.2123 333.6661 0055658 101.9259 258.8189 14.42258512876012"
      },
      "geometry": {
        "type": "Point",
        "coordinates": [
          -25.914983050228432,
          13.541286021435619
        ]
      }
    },
    {
      "type": "Feature",
      "properties": {
        "norad_id": 34146,
        "name": "IRIDIUM 33 DEB",
        "group": "iridium-33-debris",
        "lat": -22.962579921585544,
        "lon": -11.138489654845335,
        "alt_km": 740.5177899491173,
        "timestamp": "2025-12-11T07:02:24.115339+00:00",
        "meta_object_name": "IRIDIUM 33 DEB",
        "meta_object_id": "1997-051DZ",
        "meta_epoch": "2025-12-10T18:42:15.359616",
        "meta_mean_motion": 14.49026289,
        "meta_eccentricity": 0.00253347,
        "meta_inclination": 86.2839,
        "meta_ra_of_asc_node": 350.6664,
        "meta_arg_of_pericenter": 228.5849,
        "meta_mean_anomaly": 308.7272,
        "meta_ephemeris_type": 0,
        "meta_classification_type": "U",
        "meta_norad_cat_id": 34146,
        "meta_element_set_no": 999,
        "meta_rev_at_epoch": 88078,
        "meta_bstar": 0.0014626959,
        "meta_mean_motion_dot": 5.59e-05,
        "meta_mean_motion_ddot": 0,
        "tle_line1": "1 34146U 97051DZ  25344.77934444  .00005590  00000+0  14627-2 0  9990",
        "tle_line2": "2 34146  86.2839 350.6664 0025334 228.5849 308.7272 14.49026289880786"
      },
      "geometry": {
        "type": "Point",
        "coordinates": [
          -11.138489654845335,
          -22.962579921585544
        ]
      }
    },
    {
      "type": "Feature",
      "properties": {
        "norad_id": 34159,
        "name": "IRIDIUM 33 DEB",
        "group": "iridium-33-debris",
        "lat": 73.02273092027717,
        "lon": -143.20703671030904,
        "alt_km": 775.0314169683206,
        "timestamp": "2025-12-11T07:02:24.115350+00:00",
        "meta_object_name": "IRIDIUM 33 DEB",
        "meta_object_id": "1997-051EN",
        "meta_epoch": "2025-12-10T22:11:52.520352",
        "meta_mean_motion": 14.38485877,
        "meta_eccentricity": 0.00259911,
        "meta_inclination": 86.351,
        "meta_ra_of_asc_node": 49.0152,
        "meta_arg_of_pericenter": 294.2781,
        "meta_mean_anomaly": 65.5702,
        "meta_ephemeris_type": 0,
        "meta_classification_type": "U",
        "meta_norad_cat_id": 34159,
        "meta_element_set_no": 999,
        "meta_rev_at_epoch": 87933,
        "meta_bstar": 0.00057442822,
        "meta_mean_motion_dot": 1.779e-05,
        "meta_mean_motion_ddot": 0,
        "tle_line1": "1 34159U 97051EN  25344.92491343  .00001779  00000+0  57443-3 0  9996",
        "tle_line2": "2 34159  86.3510  49.0152 0025991 294.2781  65.5702 14.38485877879337"
      },
      "geometry": {
        "type": "Point",
        "coordinates": [
          -143.20703671030904,
          73.02273092027717
        ]
      }
    }
  ]
}